{"type": "FeatureCollection", "features": [ {"type": "Feature", "properties": {"norad_id": 41836, "name": "HIMAWARI-9", "group": "weather", "lat": 0.03786530124873943, "lon": 128.5507211777964, "alt_km": 35792.51977935081, "timestamp": "2025-12-25T16:53:14.296402+00:00", "meta": {"OBJECT_NAME": "HIMAWARI-9", "OBJECT_ID": "2016-064A", "EPOCH": "2025-12-23T22:52:38.784288", "MEAN_MOTION": 1.00271828, "ECCENTRICITY": 0.00016373, "INCLINATION": 0.0175, "RA_OF_ASC_NODE": 40.3208, "ARG_OF_PERICENTER": 292.8784, "MEAN_ANOMALY": 243.4785, "EPHEMERIS_TYPE": 0, "CLASSIFICATION_TYPE": "U", "NORAD_CAT_ID": 41836, "ELEMENT_SET_NO": 999, "REV_AT_EPOCH": 3345, "BSTAR": 0, "MEAN_MOTION_DOT": 0, "MEAN_MOTION_DDOT": 0}, "tle": {"line1": "1 41836U 16064A   25357.95322667  .00000000  00000+0  00000+0 0  9999", "line2": "2 41836   0.0175  40.3208 0001637 292.8784 243.4785  1.00271828 33458"}}, "geometry": {"type": "Point", "coordinates": [128.5507211777964, 0.03786530124873943]}}, {"type": "Feature", "properties": {"norad_id": 41866, "name": "GOES 16", "group": "weather", "lat": 0.032015173689969936, "lon": -116.90859862403786, "alt_km": 35774.213352885134, "timestamp": "2025-12-25T16:53:14.296418+00:00", "meta": {"OBJECT_NAME": "GOES 16", "OBJECT_ID": "2016-071A", "EPOCH": "2025-12-24T12:07:46.794144", "MEAN_MOTION": 1.00273928, "ECCENTRICITY": 0.00030223, "INCLINATION": 0.0751, "RA_OF_ASC_NODE": 101.9123, "ARG_OF_PERICENTER": 169.4084, "MEAN_ANOMALY": 259.2386, "EPHEMERIS_TYPE": 0, "CLASSIFICATION_TYPE": "U", "NORAD_CAT_ID": 41866, "ELEMENT_SET_NO": 999, "REV_AT_EPOCH": 3335, "BSTAR": 0, "MEAN_MOTION_DOT": -7e-07, "MEAN_MOTION_DDOT": 0}, "tle": {"line1": "1 41866U 16071A   25358.50540271 -.00000070  00000+0  00000+0 0  9993", "line2": "2 41866   0.0751 101.9123 0003022 169.4084 259.2386  1.00273928 33357"}}, "geometry": {"type": "Point", "coordinates": [-116.90859862403786, 0.032015173689969936]}}, {"type": "Feature", "properties": {"norad_id": 41882, "name": "FENGYUN 4A", "group": "weather", "lat": 0.9323901082943331, "lon": 111.29615780767858, "alt_km": 35796.22264926748, "timestamp": "2025-12-25T16:53:14.296431+00:00", "meta": {"OBJECT_NAME": "FENGYUN 4A", "OBJECT_ID": "2016-077A", "EPOCH": "2025-12-25T06:48:21.825216", "MEAN_MOTION": 1.00263084, "ECCENTRICITY": 0.00044951, "INCLINATION": 1.8789, "RA_OF_ASC_NODE": 82.2684, "ARG_OF_PERICENTER": 142.9921, "MEAN_ANOMALY": 94.4822, "EPHEMERIS_TYPE": 0, "CLASSIFICATION_TYPE": "U", "NORAD_CAT_ID": 41882, "ELEMENT_SET_NO": 999, "REV_AT_EPOCH": 3318, "BSTAR": 0, "MEAN_MOTION_DOT": -3.37e-06, "MEAN_MOTION_DDOT": 0}, "tle": {"line1": "1 41882U 16077A   25359.28358594 -.00000337  00000+0  00000+0 0  9994", "line2": "2 41882   1.8789  82.2684 0004495 142.9921  94.4822  1.00263084 33186"}}, "geometry": {"type": "Point", "coordinates": [111.29615780767858, 0.9323901082943331]}}, {"type": "Feature", "properties": {"norad_id": 41884, "name": "CYGFM05", "group": "weather", "lat": 1.9525632064131955, "lon": -34.7835049418478, "alt_km": 418.1912861892515, "timestamp": "2025-12-25T16:53:14.296443+00:00", "meta": {"OBJECT_NAME": "CYGFM05", "OBJECT_ID": "2016-078A", "EPOCH": "2025-12-25T06:02:20.349024", "MEAN_MOTION": 15.48102711, "ECCENTRICITY": 0.00105568, "INCLINATION": 34.9604, "RA_OF_ASC_NODE": 325.3743, "ARG_OF_PERICENTER": 290.9758, "MEAN_ANOMALY": 68.9834, "EPHEMERIS_TYPE": 0, "CLASSIFICATION_TYPE": "U", "NORAD_CAT_ID": 41884, "ELEMENT_SET_NO": 999, "REV_AT_EPOCH": 50170, "BSTAR": 0.00038156625, "MEAN_MOTION_DOT": 0.00020682, "MEAN_MOTION_DDOT": 0}, "tle": {"line1": "1 41884U 16078A   25359.25162441  .00020682  00000+0  38157-3 0  9990", "line2": "2 41884  34.9604 325.3743 0010556 290.9758  68.9834 15.48102711501708"}}, "geometry": {"type": "Point", "coordinates": [-34.7835049418478, 1.9525632064131955]}}, {"type": "Feature", "properties": {"norad_id": 41885, "name": "CYGFM04", "group": "weather", "lat": 6.825995552909558, "lon": -53.30805087691208, "alt_km": 408.19715804734733, "timestamp": "2025-12-25T16:53:14.296454+00:00", "meta": {"OBJECT_NAME": "CYGFM04", "OBJECT_ID": "2016-078B", "EPOCH": "2025-12-25T04:28:37.064640", "MEAN_MOTION": 15.50892129, "ECCENTRICITY": 0.00091344, "INCLINATION": 34.935, "RA_OF_ASC_NODE": 300.2129, "ARG_OF_PERICENTER": 315.0018, "MEAN_ANOMALY": 44.9963, "EPHEMERIS_TYPE": 0, "CLASSIFICATION_TYPE": "U", "NORAD_CAT_ID": 41885, "ELEMENT_SET_NO": 999, "REV_AT_EPOCH": 50187, "BSTAR": 0.00040092546, "MEAN_MOTION_DOT": 0.0002399, "MEAN_MOTION_DDOT": 0}, "tle": {"line1": "1 41885U 16078B   25359.18654010  .00023990  00000+0  40093-3 0  9998", "line2": "2 41885  34.9350 300.2129 0009134 315.0018  44.9963 15.50892129501872"}}, "geometry": {"type": "Point", "coordinates": [-53.30805087691208, 6.825995552909558]}}, {"type": "Feature", "properties": {"norad_id": 41886, "name": "CYGFM02", "group": "weather", "lat": 34.92236545050133, "lon": 25.717695251129516, "alt_km": 408.0700307633151, "timestamp": "2025-12-25T16:53:14.296465+00:00", "meta": {"OBJECT_NAME": "CYGFM02", "OBJECT_ID": "2016-078C", "EPOCH": "2025-12-25T05:41:42.014112", "MEAN_MOTION": 15.52312249, "ECCENTRICITY": 0.0010765, "INCLINATION": 34.9439, "RA_OF_ASC_NODE": 298.0418, "ARG_OF_PERICENTER": 316.9249, "MEAN_ANOMALY": 43.0631, "EPHEMERIS_TYPE": 0, "CLASSIFICATION_TYPE": "U", "NORAD_CAT_ID": 41886, "ELEMENT_SET_NO": 999, "REV_AT_EPOCH": 50201, "BSTAR": 0.00040918916, "MEAN_MOTION_DOT": 0.00025793, "MEAN_MOTION_DDOT": 0}, "tle": {"line1": "1 41886U 16078C   25359.23729183  .00025793  00000+0  40919-3 0  9999", "line2": "2 41886  34.9439 298.0418 0010765 316.9249  43.0631 15.52312249502015"}}, "geometry": {"type": "Point", "coordinates": [25.717695251129516, 34.92236545050133]}}, {"type": "Feature", "properties": {"norad_id": 41887, "name": "CYGFM01", "group": "weather", "lat": 33.60233069639104, "lon": 36.780582931182025, "alt_km": 420.18851812236517, "timestamp": "2025-12-25T16:53:14.296476+00:00", "meta": {"OBJECT_NAME": "CYGFM01", "OBJECT_ID": "2016-078D", "EPOCH": "2025-12-25T04:11:15.764928", "MEAN_MOTION": 15.48692706, "ECCENTRICITY": 0.00103661, "INCLINATION": 34.9435, "RA_OF_ASC_NODE": 328.1391, "ARG_OF_PERICENTER": 282.5516, "MEAN_ANOMALY": 77.4046, "EPHEMERIS_TYPE": 0, "CLASSIFICATION_TYPE": "U", "NORAD_CAT_ID": 41887, "ELEMENT_SET_NO": 999, "REV_AT_EPOCH": 50163, "BSTAR": 0.00039671797, "MEAN_MOTION_DOT": 0.00021959, "MEAN_MOTION_DDOT": 0}, "tle": {"line1": "1 41887U 16078D   25359.17448802  .00021959  00000+0  39672-3 0  9993", "line2": "2 41887  34.9435 328.1391 0010366 282.5516  77.4046 15.48692706501631"}}, "geometry": {"type": "Point", "coordinates": [36.780582931182025, 33.60233069639104]}}, {"type": "Feature", "properties": {"norad_id": 41888, "name": "CYGFM08", "group": "weather", "lat": -0.4332459221585505, "lon": 128.1358698922022, "alt_km": 420.84808432820864, "timestamp": "2025-12-25T16:53:14.296487+00:00", "meta": {"OBJECT_NAME": "CYGFM08", "OBJECT_ID": "2016-078E", "EPOCH": "2025-12-25T03:44:39.232896", "MEAN_MOTION": 15.4993145, "ECCENTRICITY": 0.00114679, "INCLINATION": 34.9463, "RA_OF_ASC_NODE": 311.1056, "ARG_OF_PERICENTER": 306.0331, "MEAN_ANOMALY": 53.9328, "EPHEMERIS_TYPE": 0, "CLASSIFICATION_TYPE": "U", "NORAD_CAT_ID": 41888, "ELEMENT_SET_NO": 999, "REV_AT_EPOCH": 50186, "BSTAR": 0.00039466493, "MEAN_MOTION_DOT": 0.00022838, "MEAN_MOTION_DDOT": 0}, "tle": {"line1": "1 41888U 16078E   25359.15600964  .00022838  00000+0  39466-3 0  9999", "line2": "2 41888  34.9463 311.1056 0011467 306.0331  53.9328 15.49931450501863"}}, "geometry": {"type": "Point", "coordinates": [128.1358698922022, -0.4332459221585505]}}, {"type": "Feature", "properties": {"norad_id": 41890, "name": "CYGFM07", "group": "weather", "lat": -9.113426733085332, "lon": 129.7021818702691, "alt_km": 419.1713643689254, "timestamp": "2025-12-25T16:53:14.296498+00:00", "meta": {"OBJECT_NAME": "CYGFM07", "OBJECT_ID": "2016-078G", "EPOCH": "2025-12-25T02:08:18.875904", "MEAN_MOTION": 15.50522977, "ECCENTRICITY": 0.00093938, "INCLINATION": 34.9478, "RA_OF_ASC_NODE": 300.4548, "ARG_OF_PERICENTER": 319.9198, "MEAN_ANOMALY": 40.083, "EPHEMERIS_TYPE": 0, "CLASSIFICATION_TYPE": "U", "NORAD_CAT_ID": 41890, "ELEMENT_SET_NO": 999, "REV_AT_EPOCH": 50187, "BSTAR": 0.00040403981, "MEAN_MOTION_DOT": 0.00023861, "MEAN_MOTION_DDOT": 0}, "tle": {"line1": "1 41890U 16078G   25359.08910736  .00023861  00000+0  40404-3 0  9996", "line2": "2 41890  34.9478 300.4548 0009393 319.9198  40.0830 15.50522977501876"}}, "geometry": {"type": "Point", "coordinates": [129.7021818702691, -9.113426733085332]}}, {"type": "Feature", "properties": {"norad_id": 41891, "name": "CYGFM03", "group": "weather", "lat": 14.535074425559195, "lon": -39.85286966192099, "alt_km": 410.4242683645771, "timestamp": "2025-12-25T16:53:14.296510+00:00", "meta": {"OBJECT_NAME": "CYGFM03", "OBJECT_ID": "2016-078H", "EPOCH": "2025-12-25T01:19:20.476704", "MEAN_MOTION": 15.504147, "ECCENTRICITY": 0.00092269, "INCLINATION": 34.9431, "RA_OF_ASC_NODE": 302.6047, "ARG_OF_PERICENTER": 306.7099, "MEAN_ANOMALY": 53.2776, "EPHEMERIS_TYPE": 0, "CLASSIFICATION_TYPE": "U", "NORAD_CAT_ID": 41891, "ELEMENT_SET_NO": 999, "REV_AT_EPOCH": 50184, "BSTAR": 0.00039735587, "MEAN_MOTION_DOT": 0.00023373, "MEAN_MOTION_DDOT": 0}, "tle": {"line1": "1 41891U 16078H   25359.05509811  .00023373  00000+0  39736-3 0  9996", "line2": "2 41891  34.9431 302.6047 0009226 306.7099  53.2776 15.50414700501849"}}, "geometry": {"type": "Point", "coordinates": [-39.85286966192099, 14.535074425559195]}}]}